DELTA 2 R/B(1)          
1 20453U 90008B   26024.59228953  .00067819  00000+0  94977-3 0  9997
2 20453  35.6054 102.9148 0100403 210.3563 149.1329 15.49832570919273
COSMOS 2058             
1 20465U 90010A   26024.61304124  .00005105  00000+0  30438-3 0  9993
2 20465  82.4652  90.8486 0011446 120.9096 239.3260 15.10908457935589
SL-14 R/B               
1 20466U 90010B   26024.77860587  .00000838  00000+0  98623-4 0  9990
2 20466  82.5045 308.6309 0021418  84.8638 275.5020 14.83523588921972
SL-14 R/B               
1 20511U 90018B   26024.61900814  .00000678  00000+0  82238-4 0  9997
2 20511  82.5200 264.2908 0015102 234.3767 125.6041 14.82097982916050
HST                     
1 20580U 90037B   26024.88860905  .00011370  00000+0  38722-3 0  9998
2 20580  28.4678 338.6408 0001718 352.1287   7.9281 15.28735153766601
SL-16 R/B               
1 20625U 90046B   26024.44405832 -.00000177  00000+0 -66871-4 0  9996
2 20625  70.9993  30.8355 0014004   1.1067 359.0084 14.15007576842135
COSMOS 2084             
1 20663U 90055A   26024.68484457  .00004790  00000+0  34460-3 0  9995
2 20663  62.7903 125.6307 0024348 181.3149 178.7892 15.05344312929693
SL-6 R/B(2)             
1 20666U 90055D   26024.47505657  .00003688  00000+0  28387-3 0  9997
2 20666  62.7839  44.1801 0018393 333.1181  26.8963 15.03328436931540
SL-8 R/B                
1 20775U 90078B   26024.73999628  .00022421  00000+0  67101-3 0  9990
2 20775  82.9048 290.7849 0368215 161.2376 200.2846 14.87513517802761
SL-8 R/B                
1 21088U 91006B   26024.91872806  .00000026  00000+0  10861-4 0  9997
2 21088  82.9409 202.5924 0022989 155.0307  13.6190 13.77491994758046
OKEAN-3                 
1 21397U 91039A   26024.91977957  .00006057  00000+0  43034-3 0  9996
2 21397  82.5164  19.2346 0015879 115.7154 244.5714 15.04436087858454
COSMOS 2151             
1 21422U 91042A   26024.85632944  .00003227  00000+0  25773-3 0  9992
2 21422  82.4977 125.9505 0012077 201.1323 158.9404 14.99911319856621
