CCSDS_OMM_VERS = 2.0
CREATION_DATE  = 
ORIGINATOR     = 

OBJECT_NAME    = DELTA 2 R/B(1)
OBJECT_ID      = 1990-008B
CENTER_NAME    = EARTH
REF_FRAME      = TEME
TIME_SYSTEM    = UTC
MEAN_ELEMENT_THEORY = SGP/SGP4

EPOCH          = 2026-01-24T14:12:53.815392
MEAN_MOTION    = 15.49832570
ECCENTRICITY   = .0100403
INCLINATION    = 35.6054
RA_OF_ASC_NODE = 102.9148
ARG_OF_PERICENTER = 210.3563
MEAN_ANOMALY   = 149.1329

EPHEMERIS_TYPE = 0
CLASSIFICATION_TYPE = U
NORAD_CAT_ID   = 20453
ELEMENT_SET_NO = 999
REV_AT_EPOCH   = 91927
BSTAR          = .94977274E-3
MEAN_MOTION_DOT = .67819E-3
MEAN_MOTION_DDOT = 0

CCSDS_OMM_VERS = 2.0
CREATION_DATE  = 
ORIGINATOR     = 

OBJECT_NAME    = COSMOS 2058
OBJECT_ID      = 1990-010A
CENTER_NAME    = EARTH
REF_FRAME      = TEME
TIME_SYSTEM    = UTC
MEAN_ELEMENT_THEORY = SGP/SGP4

EPOCH          = 2026-01-24T14:42:46.763136
MEAN_MOTION    = 15.10908457
ECCENTRICITY   = .0011446
INCLINATION    = 82.4652
RA_OF_ASC_NODE = 90.8486
ARG_OF_PERICENTER = 120.9096
MEAN_ANOMALY   = 239.3260

EPHEMERIS_TYPE = 0
CLASSIFICATION_TYPE = U
NORAD_CAT_ID   = 20465
ELEMENT_SET_NO = 999
REV_AT_EPOCH   = 93558
BSTAR          = .3043772E-3
MEAN_MOTION_DOT = .5105E-4
MEAN_MOTION_DDOT = 0

CCSDS_OMM_VERS = 2.0
CREATION_DATE  = 
ORIGINATOR     = 

OBJECT_NAME    = SL-14 R/B
OBJECT_ID      = 1990-010B
CENTER_NAME    = EARTH
REF_FRAME      = TEME
TIME_SYSTEM    = UTC
MEAN_ELEMENT_THEORY = SGP/SGP4

EPOCH          = 2026-01-24T18:41:11.547168
MEAN_MOTION    = 14.83523588
ECCENTRICITY   = .00214183
INCLINATION    = 82.5045
RA_OF_ASC_NODE = 308.6309
ARG_OF_PERICENTER = 84.8638
MEAN_ANOMALY   = 275.5020

EPHEMERIS_TYPE = 0
CLASSIFICATION_TYPE = U
NORAD_CAT_ID   = 20466
ELEMENT_SET_NO = 999
REV_AT_EPOCH   = 92197
BSTAR          = .98623187E-4
MEAN_MOTION_DOT = .838E-5
MEAN_MOTION_DDOT = 0

CCSDS_OMM_VERS = 2.0
CREATION_DATE  = 
ORIGINATOR     = 

OBJECT_NAME    = SL-14 R/B
OBJECT_ID      = 1990-018B
CENTER_NAME    = EARTH
REF_FRAME      = TEME
TIME_SYSTEM    = UTC
MEAN_ELEMENT_THEORY = SGP/SGP4

EPOCH          = 2026-01-24T14:51:22.303296
MEAN_MOTION    = 14.82097982
ECCENTRICITY   = .00151027
INCLINATION    = 82.5200
RA_OF_ASC_NODE = 264.2908
ARG_OF_PERICENTER = 234.3767
MEAN_ANOMALY   = 125.6041

EPHEMERIS_TYPE = 0
CLASSIFICATION_TYPE = U
NORAD_CAT_ID   = 20511
ELEMENT_SET_NO = 999
REV_AT_EPOCH   = 91605
BSTAR          = .82238124E-4
MEAN_MOTION_DOT = .678E-5
MEAN_MOTION_DDOT = 0

CCSDS_OMM_VERS = 2.0
CREATION_DATE  = 
ORIGINATOR     = 

OBJECT_NAME    = HST
OBJECT_ID      = 1990-037B
CENTER_NAME    = EARTH
REF_FRAME      = TEME
TIME_SYSTEM    = UTC
MEAN_ELEMENT_THEORY = SGP/SGP4

EPOCH          = 2026-01-24T21:19:35.821920
MEAN_MOTION    = 15.28735153
ECCENTRICITY   = .00017189
INCLINATION    = 28.4678
RA_OF_ASC_NODE = 338.6408
ARG_OF_PERICENTER = 352.1287
MEAN_ANOMALY   = 7.9281

EPHEMERIS_TYPE = 0
CLASSIFICATION_TYPE = U
NORAD_CAT_ID   = 20580
ELEMENT_SET_NO = 999
REV_AT_EPOCH   = 76660
BSTAR          = .38721813E-3
MEAN_MOTION_DOT = .1137E-3
MEAN_MOTION_DDOT = 0

CCSDS_OMM_VERS = 2.0
CREATION_DATE  = 
ORIGINATOR     = 

OBJECT_NAME    = SL-16 R/B
OBJECT_ID      = 1990-046B
CENTER_NAME    = EARTH
REF_FRAME      = TEME
TIME_SYSTEM    = UTC
MEAN_ELEMENT_THEORY = SGP/SGP4

EPOCH          = 2026-01-24T10:39:26.638848
MEAN_MOTION    = 14.15007576
ECCENTRICITY   = .00140042
INCLINATION    = 70.9993
RA_OF_ASC_NODE = 30.8355
ARG_OF_PERICENTER = 1.1067
MEAN_ANOMALY   = 359.0084

EPHEMERIS_TYPE = 0
CLASSIFICATION_TYPE = U
NORAD_CAT_ID   = 20625
ELEMENT_SET_NO = 999
REV_AT_EPOCH   = 84213
BSTAR          = -.6687072E-4
MEAN_MOTION_DOT = -.177E-5
MEAN_MOTION_DDOT = 0

CCSDS_OMM_VERS = 2.0
CREATION_DATE  = 
ORIGINATOR     = 

OBJECT_NAME    = COSMOS 2084
OBJECT_ID      = 1990-055A
CENTER_NAME    = EARTH
REF_FRAME      = TEME
TIME_SYSTEM    = UTC
MEAN_ELEMENT_THEORY = SGP/SGP4

EPOCH          = 2026-01-24T16:26:10.570848
MEAN_MOTION    = 15.05344312
ECCENTRICITY   = .00243486
INCLINATION    = 62.7903
RA_OF_ASC_NODE = 125.6307
ARG_OF_PERICENTER = 181.3149
MEAN_ANOMALY   = 178.7892

EPHEMERIS_TYPE = 0
CLASSIFICATION_TYPE = U
NORAD_CAT_ID   = 20663
ELEMENT_SET_NO = 999
REV_AT_EPOCH   = 92969
BSTAR          = .34460116E-3
MEAN_MOTION_DOT = .479E-4
MEAN_MOTION_DDOT = 0

CCSDS_OMM_VERS = 2.0
CREATION_DATE  = 
ORIGINATOR     = 

OBJECT_NAME    = SL-6 R/B(2)
OBJECT_ID      = 1990-055D
CENTER_NAME    = EARTH
REF_FRAME      = TEME
TIME_SYSTEM    = UTC
MEAN_ELEMENT_THEORY = SGP/SGP4

EPOCH          = 2026-01-24T11:24:04.887648
MEAN_MOTION    = 15.03328436
ECCENTRICITY   = .00183936
INCLINATION    = 62.7839
RA_OF_ASC_NODE = 44.1801
ARG_OF_PERICENTER = 333.1181
MEAN_ANOMALY   = 26.8963

EPHEMERIS_TYPE = 0
CLASSIFICATION_TYPE = U
NORAD_CAT_ID   = 20666
ELEMENT_SET_NO = 999
REV_AT_EPOCH   = 93154
BSTAR          = .2838703E-3
MEAN_MOTION_DOT = .3688E-4
MEAN_MOTION_DDOT = 0

CCSDS_OMM_VERS = 2.0
CREATION_DATE  = 
ORIGINATOR     = 

OBJECT_NAME    = SL-8 R/B
OBJECT_ID      = 1990-078B
CENTER_NAME    = EARTH
REF_FRAME      = TEME
TIME_SYSTEM    = UTC
MEAN_ELEMENT_THEORY = SGP/SGP4

EPOCH          = 2026-01-24T17:45:35.678592
MEAN_MOTION    = 14.87513517
ECCENTRICITY   = .03682156
INCLINATION    = 82.9048
RA_OF_ASC_NODE = 290.7849
ARG_OF_PERICENTER = 161.2376
MEAN_ANOMALY   = 200.2846

EPHEMERIS_TYPE = 0
CLASSIFICATION_TYPE = U
NORAD_CAT_ID   = 20775
ELEMENT_SET_NO = 999
REV_AT_EPOCH   = 80276
BSTAR          = .67101429E-3
MEAN_MOTION_DOT = .22421E-3
MEAN_MOTION_DDOT = 0

CCSDS_OMM_VERS = 2.0
CREATION_DATE  = 
ORIGINATOR     = 

OBJECT_NAME    = SL-8 R/B
OBJECT_ID      = 1991-006B
CENTER_NAME    = EARTH
REF_FRAME      = TEME
TIME_SYSTEM    = UTC
MEAN_ELEMENT_THEORY = SGP/SGP4

EPOCH          = 2026-01-24T22:02:58.104384
MEAN_MOTION    = 13.77491994
ECCENTRICITY   = .00229892
INCLINATION    = 82.9409
RA_OF_ASC_NODE = 202.5924
ARG_OF_PERICENTER = 155.0307
MEAN_ANOMALY   = 13.6190

EPHEMERIS_TYPE = 0
CLASSIFICATION_TYPE = U
NORAD_CAT_ID   = 21088
ELEMENT_SET_NO = 999
REV_AT_EPOCH   = 75804
BSTAR          = .10861058E-4
MEAN_MOTION_DOT = .26E-6
MEAN_MOTION_DDOT = 0

CCSDS_OMM_VERS = 2.0
CREATION_DATE  = 
ORIGINATOR     = 

OBJECT_NAME    = OKEAN-3
OBJECT_ID      = 1991-039A
CENTER_NAME    = EARTH
REF_FRAME      = TEME
TIME_SYSTEM    = UTC
MEAN_ELEMENT_THEORY = SGP/SGP4

EPOCH          = 2026-01-24T22:04:28.954848
MEAN_MOTION    = 15.04436087
ECCENTRICITY   = .00158791
INCLINATION    = 82.5164
RA_OF_ASC_NODE = 19.2346
ARG_OF_PERICENTER = 115.7154
MEAN_ANOMALY   = 244.5714

EPHEMERIS_TYPE = 0
CLASSIFICATION_TYPE = U
NORAD_CAT_ID   = 21397
ELEMENT_SET_NO = 999
REV_AT_EPOCH   = 85845
BSTAR          = .43034094E-3
MEAN_MOTION_DOT = .6057E-4
MEAN_MOTION_DDOT = 0

CCSDS_OMM_VERS = 2.0
CREATION_DATE  = 
ORIGINATOR     = 

OBJECT_NAME    = COSMOS 2151
OBJECT_ID      = 1991-042A
CENTER_NAME    = EARTH
REF_FRAME      = TEME
TIME_SYSTEM    = UTC
MEAN_ELEMENT_THEORY = SGP/SGP4

EPOCH          = 2026-01-24T20:33:06.863616
MEAN_MOTION    = 14.99911319
ECCENTRICITY   = .00120779
INCLINATION    = 82.4977
RA_OF_ASC_NODE = 125.9505
ARG_OF_PERICENTER = 201.1323
MEAN_ANOMALY   = 158.9404

EPHEMERIS_TYPE = 0
CLASSIFICATION_TYPE = U
NORAD_CAT_ID   = 21422
ELEMENT_SET_NO = 999
REV_AT_EPOCH   = 85662
BSTAR          = .25773114E-3
MEAN_MOTION_DOT = .3227E-4
MEAN_MOTION_DDOT = 0

